<?xml version="1.0" encoding="UTF-8"?>
<ndm xmlns:xsi="http://www.w3.org/2001/XMLSchema-instance" xsi:noNamespaceSchemaLocation="https://sanaregistry.org/r/ndmxml_unqualified/ndmxml-2.0.0-master-2.0.xsd">
<omm id="CCSDS_OMM_VERS" version="2.0">
<header><CREATION_DATE/><ORIGINATOR/></header><body><segment><metadata><OBJECT_NAME>KUIPER-00061</OBJECT_NAME><OBJECT_ID>2025-134X</OBJECT_ID><CENTER_NAME>EARTH</CENTER_NAME><REF_FRAME>TEME</REF_FRAME><TIME_SYSTEM>UTC</TIME_SYSTEM><MEAN_ELEMENT_THEORY>SGP4</MEAN_ELEMENT_THEORY></metadata><data><meanElements><EPOCH>2025-11-14T13:33:33.434784</EPOCH><MEAN_MOTION>14.80028999</MEAN_MOTION><ECCENTRICITY>.0004984</ECCENTRICITY><INCLINATION>51.9025</INCLINATION><RA_OF_ASC_NODE>17.1637</RA_OF_ASC_NODE><ARG_OF_PERICENTER>255.6943</ARG_OF_PERICENTER><MEAN_ANOMALY>104.3467</MEAN_ANOMALY></meanElements><tleParameters><EPHEMERIS_TYPE>0</EPHEMERIS_TYPE><CLASSIFICATION_TYPE>U</CLASSIFICATION_TYPE><NORAD_CAT_ID>64521</NORAD_CAT_ID><ELEMENT_SET_NO>999</ELEMENT_SET_NO><REV_AT_EPOCH>2308</REV_AT_EPOCH><BSTAR>.68044E-3</BSTAR><MEAN_MOTION_DOT>.4981E-4</MEAN_MOTION_DOT><MEAN_MOTION_DDOT>0</MEAN_MOTION_DDOT></tleParameters></data></segment></body></omm>
<omm id="CCSDS_OMM_VERS" version="2.0">
<header><CREATION_DATE/><ORIGINATOR/></header><body><segment><metadata><OBJECT_NAME>KUIPER-00062</OBJECT_NAME><OBJECT_ID>2025-134Y</OBJECT_ID><CENTER_NAME>EARTH</CENTER_NAME><REF_FRAME>TEME</REF_FRAME><TIME_SYSTEM>UTC</TIME_SYSTEM><MEAN_ELEMENT_THEORY>SGP4</MEAN_ELEMENT_THEORY></metadata><data><meanElements><EPOCH>2025-11-14T08:24:29.121984</EPOCH><MEAN_MOTION>14.84900127</MEAN_MOTION><ECCENTRICITY>.0006645</ECCENTRICITY><INCLINATION>51.8988</INCLINATION><RA_OF_ASC_NODE>24.0932</RA_OF_ASC_NODE><ARG_OF_PERICENTER>277.0394</ARG_OF_PERICENTER><MEAN_ANOMALY>82.9815</MEAN_ANOMALY></meanElements><tleParameters><EPHEMERIS_TYPE>0</EPHEMERIS_TYPE><CLASSIFICATION_TYPE>U</CLASSIFICATION_TYPE><NORAD_CAT_ID>64522</NORAD_CAT_ID><ELEMENT_SET_NO>999</ELEMENT_SET_NO><REV_AT_EPOCH>2298</REV_AT_EPOCH><BSTAR>.79409E-3</BSTAR><MEAN_MOTION_DOT>.6599E-4</MEAN_MOTION_DOT><MEAN_MOTION_DDOT>0</MEAN_MOTION_DDOT></tleParameters></data></segment></body></omm>
<omm id="CCSDS_OMM_VERS" version="2.0">
<header><CREATION_DATE/><ORIGINATOR/></header><body><segment><metadata><OBJECT_NAME>KUIPER-00063</OBJECT_NAME><OBJECT_ID>2025-134Z</OBJECT_ID><CENTER_NAME>EARTH</CENTER_NAME><REF_FRAME>TEME</REF_FRAME><TIME_SYSTEM>UTC</TIME_SYSTEM><MEAN_ELEMENT_THEORY>SGP4</MEAN_ELEMENT_THEORY></metadata><data><meanElements><EPOCH>2025-11-14T14:45:57.866976</EPOCH><MEAN_MOTION>14.80057275</MEAN_MOTION><ECCENTRICITY>.0003316</ECCENTRICITY><INCLINATION>51.9035</INCLINATION><RA_OF_ASC_NODE>26.8705</RA_OF_ASC_NODE><ARG_OF_PERICENTER>213.6444</ARG_OF_PERICENTER><MEAN_ANOMALY>146.4308</MEAN_ANOMALY></meanElements><tleParameters><EPHEMERIS_TYPE>0</EPHEMERIS_TYPE><CLASSIFICATION_TYPE>U</CLASSIFICATION_TYPE><NORAD_CAT_ID>64523</NORAD_CAT_ID><ELEMENT_SET_NO>999</ELEMENT_SET_NO><REV_AT_EPOCH>2296</REV_AT_EPOCH><BSTAR>.72254E-3</BSTAR><MEAN_MOTION_DOT>.5307E-4</MEAN_MOTION_DOT><MEAN_MOTION_DDOT>0</MEAN_MOTION_DDOT></tleParameters></data></segment></body></omm>
<omm id="CCSDS_OMM_VERS" version="2.0">
<header><CREATION_DATE/><ORIGINATOR/></header><body><segment><metadata><OBJECT_NAME>KUIPER-00064</OBJECT_NAME><OBJECT_ID>2025-134AA</OBJECT_ID><CENTER_NAME>EARTH</CENTER_NAME><REF_FRAME>TEME</REF_FRAME><TIME_SYSTEM>UTC</TIME_SYSTEM><MEAN_ELEMENT_THEORY>SGP4</MEAN_ELEMENT_THEORY></metadata><data><meanElements><EPOCH>2025-11-14T11:24:14.757120</EPOCH><MEAN_MOTION>14.79687946</MEAN_MOTION><ECCENTRICITY>.0006249</ECCENTRICITY><INCLINATION>51.9047</INCLINATION><RA_OF_ASC_NODE>24.8249</RA_OF_ASC_NODE><ARG_OF_PERICENTER>334.9625</ARG_OF_PERICENTER><MEAN_ANOMALY>25.1034</MEAN_ANOMALY></meanElements><tleParameters><EPHEMERIS_TYPE>0</EPHEMERIS_TYPE><CLASSIFICATION_TYPE>U</CLASSIFICATION_TYPE><NORAD_CAT_ID>64524</NORAD_CAT_ID><ELEMENT_SET_NO>999</ELEMENT_SET_NO><REV_AT_EPOCH>2298</REV_AT_EPOCH><BSTAR>.10614E-2</BSTAR><MEAN_MOTION_DOT>.7834E-4</MEAN_MOTION_DOT><MEAN_MOTION_DDOT>0</MEAN_MOTION_DDOT></tleParameters></data></segment></body></omm>
<omm id="CCSDS_OMM_VERS" version="2.0">
<header><CREATION_DATE/><ORIGINATOR/></header><body><segment><metadata><OBJECT_NAME>KUIPER-00065</OBJECT_NAME><OBJECT_ID>2025-134AB</OBJECT_ID><CENTER_NAME>EARTH</CENTER_NAME><REF_FRAME>TEME</REF_FRAME><TIME_SYSTEM>UTC</TIME_SYSTEM><MEAN_ELEMENT_THEORY>SGP4</MEAN_ELEMENT_THEORY></metadata><data><meanElements><EPOCH>2025-11-14T20:00:01.000224</EPOCH><MEAN_MOTION>14.76824693</MEAN_MOTION><ECCENTRICITY>.001053</ECCENTRICITY><INCLINATION>51.9024</INCLINATION><RA_OF_ASC_NODE>28.1342</RA_OF_ASC_NODE><ARG_OF_PERICENTER>260.7756</ARG_OF_PERICENTER><MEAN_ANOMALY>14.7098</MEAN_ANOMALY></meanElements><tleParameters><EPHEMERIS_TYPE>0</EPHEMERIS_TYPE><CLASSIFICATION_TYPE>U</CLASSIFICATION_TYPE><NORAD_CAT_ID>64525</NORAD_CAT_ID><ELEMENT_SET_NO>999</ELEMENT_SET_NO><REV_AT_EPOCH>558</REV_AT_EPOCH><BSTAR>-.41762E-2</BSTAR><MEAN_MOTION_DOT>-.29696E-3</MEAN_MOTION_DOT><MEAN_MOTION_DDOT>0</MEAN_MOTION_DDOT></tleParameters></data></segment></body></omm>
<omm id="CCSDS_OMM_VERS" version="2.0">
<header><CREATION_DATE/><ORIGINATOR/></header><body><segment><metadata><OBJECT_NAME>KUIPER-00066</OBJECT_NAME><OBJECT_ID>2025-134AC</OBJECT_ID><CENTER_NAME>EARTH</CENTER_NAME><REF_FRAME>TEME</REF_FRAME><TIME_SYSTEM>UTC</TIME_SYSTEM><MEAN_ELEMENT_THEORY>SGP4</MEAN_ELEMENT_THEORY></metadata><data><meanElements><EPOCH>2025-11-14T10:27:03.174624</EPOCH><MEAN_MOTION>15.19562614</MEAN_MOTION><ECCENTRICITY>.0002201</ECCENTRICITY><INCLINATION>51.8922</INCLINATION><RA_OF_ASC_NODE>7.9429</RA_OF_ASC_NODE><ARG_OF_PERICENTER>320.3035</ARG_OF_PERICENTER><MEAN_ANOMALY>39.7783</MEAN_ANOMALY></meanElements><tleParameters><EPHEMERIS_TYPE>0</EPHEMERIS_TYPE><CLASSIFICATION_TYPE>U</CLASSIFICATION_TYPE><NORAD_CAT_ID>64526</NORAD_CAT_ID><ELEMENT_SET_NO>999</ELEMENT_SET_NO><REV_AT_EPOCH>2321</REV_AT_EPOCH><BSTAR>.96368E-3</BSTAR><MEAN_MOTION_DOT>.20504E-3</MEAN_MOTION_DOT><MEAN_MOTION_DDOT>0</MEAN_MOTION_DDOT></tleParameters></data></segment></body></omm>
<omm id="CCSDS_OMM_VERS" version="2.0">
<header><CREATION_DATE/><ORIGINATOR/></header><body><segment><metadata><OBJECT_NAME>KUIPER-00069</OBJECT_NAME><OBJECT_ID>2025-151A</OBJECT_ID><CENTER_NAME>EARTH</CENTER_NAME><REF_FRAME>TEME</REF_FRAME><TIME_SYSTEM>UTC</TIME_SYSTEM><MEAN_ELEMENT_THEORY>SGP4</MEAN_ELEMENT_THEORY></metadata><data><meanElements><EPOCH>2025-11-14T20:00:01.000224</EPOCH><MEAN_MOTION>14.83533946</MEAN_MOTION><ECCENTRICITY>.0006714</ECCENTRICITY><INCLINATION>51.8968</INCLINATION><RA_OF_ASC_NODE>68.4758</RA_OF_ASC_NODE><ARG_OF_PERICENTER>262.6996</ARG_OF_PERICENTER><MEAN_ANOMALY>56.9908</MEAN_ANOMALY></meanElements><tleParameters><EPHEMERIS_TYPE>0</EPHEMERIS_TYPE><CLASSIFICATION_TYPE>U</CLASSIFICATION_TYPE><NORAD_CAT_ID>64816</NORAD_CAT_ID><ELEMENT_SET_NO>999</ELEMENT_SET_NO><REV_AT_EPOCH>406</REV_AT_EPOCH><BSTAR>.4922E-3</BSTAR><MEAN_MOTION_DOT>.3865E-4</MEAN_MOTION_DOT><MEAN_MOTION_DDOT>0</MEAN_MOTION_DDOT></tleParameters></data></segment></body></omm>
<omm id="CCSDS_OMM_VERS" version="2.0">
<header><CREATION_DATE/><ORIGINATOR/></header><body><segment><metadata><OBJECT_NAME>KUIPER-00070</OBJECT_NAME><OBJECT_ID>2025-151B</OBJECT_ID><CENTER_NAME>EARTH</CENTER_NAME><REF_FRAME>TEME</REF_FRAME><TIME_SYSTEM>UTC</TIME_SYSTEM><MEAN_ELEMENT_THEORY>SGP4</MEAN_ELEMENT_THEORY></metadata><data><meanElements><EPOCH>2025-11-14T15:35:52.033920</EPOCH><MEAN_MOTION>14.79967102</MEAN_MOTION><ECCENTRICITY>.0009934</ECCENTRICITY><INCLINATION>51.8984</INCLINATION><RA_OF_ASC_NODE>94.2664</RA_OF_ASC_NODE><ARG_OF_PERICENTER>226.0792</ARG_OF_PERICENTER><MEAN_ANOMALY>133.9351</MEAN_ANOMALY></meanElements><tleParameters><EPHEMERIS_TYPE>0</EPHEMERIS_TYPE><CLASSIFICATION_TYPE>U</CLASSIFICATION_TYPE><NORAD_CAT_ID>64817</NORAD_CAT_ID><ELEMENT_SET_NO>999</ELEMENT_SET_NO><REV_AT_EPOCH>1938</REV_AT_EPOCH><BSTAR>-.229E-3</BSTAR><MEAN_MOTION_DOT>-.1972E-4</MEAN_MOTION_DOT><MEAN_MOTION_DDOT>0</MEAN_MOTION_DDOT></tleParameters></data></segment></body></omm>

</ndm>
