KUIPER-00061            
1 64521U 25134X   25318.56497031  .00004981  00000+0  68044-3 0  9993
2 64521  51.9025  17.1637 0004984 255.6943 104.3467 14.80028999 23084
KUIPER-00062            
1 64522U 25134Y   25318.35033706  .00006599  00000+0  79409-3 0  9990
2 64522  51.8988  24.0932 0006645 277.0394  82.9815 14.84900127 22983
KUIPER-00063            
1 64523U 25134Z   25318.61525309  .00005307  00000+0  72254-3 0  9992
2 64523  51.9035  26.8705 0003316 213.6444 146.4308 14.80057275 22964
KUIPER-00064            
1 64524U 25134AA  25318.47517080  .00007834  00000+0  10614-2 0  9992
2 64524  51.9047  24.8249 0006249 334.9625  25.1034 14.79687946 22988
KUIPER-00065            
1 64525U 25134AB  25318.83334491 -.00029696  00000+0 -41762-2 0  9996
2 64525  51.9024  28.1342 0010530 260.7756  14.7098 14.76824693  5584
KUIPER-00066            
1 64526U 25134AC  25318.43545341  .00020504  00000+0  96368-3 0  9991
2 64526  51.8922   7.9429 0002201 320.3035  39.7783 15.19562614 23219
KUIPER-00069            
1 64816U 25151A   25318.83334491  .00003865  00000+0  49220-3 0  9994
2 64816  51.8968  68.4758 0006714 262.6996  56.9908 14.83533946  4063
KUIPER-00070            
1 64817U 25151B   25318.64990780 -.00001972  00000+0 -22900-3 0  9998
2 64817  51.8984  94.2664 0009934 226.0792 133.9351 14.79967102 19389
